ONEWEB-0033             
1 45142U 20008M   25022.06846637  .00000680  00000+0  19112-2 0  9996
2 45142  87.8913 138.1371 0001784 109.2333 250.8988 13.10374650241275
ONEWEB-0035             
1 45143U 20008N   25022.25269760 -.00000199  00000+0 -60681-3 0  9999
2 45143  87.8914 138.0941 0001674 109.7092 250.4216 13.10370244241022
ONEWEB-0036             
1 45144U 20008P   25022.24275339  .00000272  00000+0  74214-3 0  9995
2 45144  87.8908 138.0443 0001463 100.3468 259.7824 13.10370978241451
ONEWEB-0038             
1 45145U 20008Q   25021.81591013  .00000257  00000+0  68988-3 0  9992
2 45145  87.8905 122.9801 0001216 129.7545 230.3690 13.11413171243302
ONEWEB-0039             
1 45146U 20008R   25023.29350393  .00000631  00000+0  17726-2 0  9990
2 45146  87.8918 137.8563 0000985 111.9262 248.1970 13.10375021242169
ONEWEB-0040             
1 45147U 20008S   25023.28684229  .00000348  00000+0  95929-3 0  9995
2 45147  87.8926 137.8734 0001576 107.5963 252.5337 13.10374042241870
ONEWEB-0043             
1 45149U 20008U   25023.28852113  .00000433  00000+0  12048-2 0  9991
2 45149  87.8919 137.8679 0001181  96.7085 263.4176 13.10375819242188
ONEWEB-0044             
1 45150U 20008V   25023.24038071  .00000218  00000+0  58803-3 0  9999
2 45150  87.8909 137.8711 0001338 103.1854 256.9423 13.10370815242461
